{"type": "FeatureCollection", "features": [ {"type": "Feature", "properties": {"norad_id": 66579, "name": "STARLINK-35868", "group": "last-30-days", "lat": 20.387215958825458, "lon": 149.2340551016592, "alt_km": 412.3982735339423, "timestamp": "2025-12-11T22:43:46.023907+00:00", "meta": {"OBJECT_NAME": "STARLINK-35868", "OBJECT_ID": "2025-268Y", "EPOCH": "2025-12-11T14:00:01.999872", "MEAN_MOTION": 15.50689334, "ECCENTRICITY": 0.0001273, "INCLINATION": 42.9999, "RA_OF_ASC_NODE": 127.8573, "ARG_OF_PERICENTER": 272.9241, "MEAN_ANOMALY": 245.1753, "EPHEMERIS_TYPE": 0, "CLASSIFICATION_TYPE": "U", "NORAD_CAT_ID": 66579, "ELEMENT_SET_NO": 999, "REV_AT_EPOCH": 448, "BSTAR": -0.0041556492, "MEAN_MOTION_DOT": -0.00237808, "MEAN_MOTION_DDOT": 0}, "tle": {"line1": "1 66579U 25268Y   25345.58335648 -.00237808  00000+0 -41556-2 0  9999", "line2": "2 66579  42.9999 127.8573 0001273 272.9241 245.1753 15.50689334  4487"}}, "geometry": {"type": "Point", "coordinates": [149.2340551016592, 20.387215958825458]}}, {"type": "Feature", "properties": {"norad_id": 66580, "name": "STARLINK-35872", "group": "last-30-days", "lat": 21.57986927712962, "lon": 150.84099312160959, "alt_km": 412.16479941459875, "timestamp": "2025-12-11T22:43:46.023919+00:00", "meta": {"OBJECT_NAME": "STARLINK-35872", "OBJECT_ID": "2025-268Z", "EPOCH": "2025-12-11T14:00:01.999872", "MEAN_MOTION": 15.50690617, "ECCENTRICITY": 0.00011277, "INCLINATION": 42.9999, "RA_OF_ASC_NODE": 127.8531, "ARG_OF_PERICENTER": 275.1018, "MEAN_ANOMALY": 244.917, "EPHEMERIS_TYPE": 0, "CLASSIFICATION_TYPE": "U", "NORAD_CAT_ID": 66580, "ELEMENT_SET_NO": 999, "REV_AT_EPOCH": 448, "BSTAR": -0.0042102779, "MEAN_MOTION_DOT": -0.00240844, "MEAN_MOTION_DDOT": 0}, "tle": {"line1": "1 66580U 25268Z   25345.58335648 -.00240844  00000+0 -42103-2 0  9994", "line2": "2 66580  42.9999 127.8531 0001127 275.1018 244.9170 15.50690617  4484"}}, "geometry": {"type": "Point", "coordinates": [150.84099312160959, 21.57986927712962]}}, {"type": "Feature", "properties": {"norad_id": 66581, "name": "STARLINK-35744", "group": "last-30-days", "lat": 22.760261820519986, "lon": 152.47815675759668, "alt_km": 412.06312344757225, "timestamp": "2025-12-11T22:43:46.023929+00:00", "meta": {"OBJECT_NAME": "STARLINK-35744", "OBJECT_ID": "2025-268AA", "EPOCH": "2025-12-11T14:00:01.999872", "MEAN_MOTION": 15.50822867, "ECCENTRICITY": 0.00015217, "INCLINATION": 42.9999, "RA_OF_ASC_NODE": 127.8478, "ARG_OF_PERICENTER": 282.7142, "MEAN_ANOMALY": 239.1494, "EPHEMERIS_TYPE": 0, "CLASSIFICATION_TYPE": "U", "NORAD_CAT_ID": 66581, "ELEMENT_SET_NO": 999, "REV_AT_EPOCH": 443, "BSTAR": -0.0077566392, "MEAN_MOTION_DOT": -0.00434792, "MEAN_MOTION_DDOT": 0}, "tle": {"line1": "1 66581U 25268AA  25345.58335648 -.00434792  00000+0 -77566-2 0  9993", "line2": "2 66581  42.9999 127.8478 0001521 282.7142 239.1494 15.50822867  4439"}}, "geometry": {"type": "Point", "coordinates": [152.47815675759668, 22.760261820519986]}}, {"type": "Feature", "properties": {"norad_id": 66582, "name": "STARLINK-35746", "group": "last-30-days", "lat": 23.915526029543095, "lon": 154.132470695119, "alt_km": 411.862964535886, "timestamp": "2025-12-11T22:43:46.023939+00:00", "meta": {"OBJECT_NAME": "STARLINK-35746", "OBJECT_ID": "2025-268AB", "EPOCH": "2025-12-11T14:00:01.999872", "MEAN_MOTION": 15.50695065, "ECCENTRICITY": 0.0001243, "INCLINATION": 42.9999, "RA_OF_ASC_NODE": 127.8426, "ARG_OF_PERICENTER": 276.4501, "MEAN_ANOMALY": 247.4001, "EPHEMERIS_TYPE": 0, "CLASSIFICATION_TYPE": "U", "NORAD_CAT_ID": 66582, "ELEMENT_SET_NO": 999, "REV_AT_EPOCH": 448, "BSTAR": -0.0043592814, "MEAN_MOTION_DOT": -0.00249137, "MEAN_MOTION_DDOT": 0}, "tle": {"line1": "1 66582U 25268AB  25345.58335648 -.00249137  00000+0 -43593-2 0  9994", "line2": "2 66582  42.9999 127.8426 0001243 276.4501 247.4001 15.50695065  4482"}}, "geometry": {"type": "Point", "coordinates": [154.132470695119, 23.915526029543095]}}, {"type": "Feature", "properties": {"norad_id": 66583, "name": "STARLINK-35941", "group": "last-30-days", "lat": 25.053857843653304, "lon": 155.81863796525687, "alt_km": 411.7045310853746, "timestamp": "2025-12-11T22:43:46.023949+00:00", "meta": {"OBJECT_NAME": "STARLINK-35941", "OBJECT_ID": "2025-268AC", "EPOCH": "2025-12-11T14:00:01.999872", "MEAN_MOTION": 15.50684286, "ECCENTRICITY": 0.00012706, "INCLINATION": 42.9999, "RA_OF_ASC_NODE": 127.8379, "ARG_OF_PERICENTER": 276.8786, "MEAN_ANOMALY": 248.8904, "EPHEMERIS_TYPE": 0, "CLASSIFICATION_TYPE": "U", "NORAD_CAT_ID": 66583, "ELEMENT_SET_NO": 999, "REV_AT_EPOCH": 448, "BSTAR": -0.0040915935, "MEAN_MOTION_DOT": -0.00234211, "MEAN_MOTION_DDOT": 0}, "tle": {"line1": "1 66583U 25268AC  25345.58335648 -.00234211  00000+0 -40916-2 0  9998", "line2": "2 66583  42.9999 127.8379 0001270 276.8786 248.8904 15.50684286  4489"}}, "geometry": {"type": "Point", "coordinates": [155.81863796525687, 25.053857843653304]}}, {"type": "Feature", "properties": {"norad_id": 66584, "name": "STARLINK-35939", "group": "last-30-days", "lat": 26.193418070510543, "lon": 157.5691266370374, "alt_km": 411.60949823196097, "timestamp": "2025-12-11T22:43:46.023962+00:00", "meta": {"OBJECT_NAME": "STARLINK-35939", "OBJECT_ID": "2025-268AD", "EPOCH": "2025-12-11T14:00:01.999872", "MEAN_MOTION": 15.50633557, "ECCENTRICITY": 0.00013238, "INCLINATION": 42.9999, "RA_OF_ASC_NODE": 127.8335, "ARG_OF_PERICENTER": 275.3399, "MEAN_ANOMALY": 252.4168, "EPHEMERIS_TYPE": 0, "CLASSIFICATION_TYPE": "U", "NORAD_CAT_ID": 66584, "ELEMENT_SET_NO": 999, "REV_AT_EPOCH": 448, "BSTAR": -0.0031349531, "MEAN_MOTION_DOT": -0.00180429, "MEAN_MOTION_DDOT": 0}, "tle": {"line1": "1 66584U 25268AD  25345.58335648 -.00180429  00000+0 -31350-2 0  9992", "line2": "2 66584  42.9999 127.8335 0001323 275.3399 252.4168 15.50633557  4483"}}, "geometry": {"type": "Point", "coordinates": [157.5691266370374, 26.193418070510543]}}, {"type": "Feature", "properties": {"norad_id": 66585, "name": "STARLINK-35963", "group": "last-30-days", "lat": 27.27542785171384, "lon": 159.29503244476112, "alt_km": 411.5638644391347, "timestamp": "2025-12-11T22:43:46.023972+00:00", "meta": {"OBJECT_NAME": "STARLINK-35963", "OBJECT_ID": "2025-268AE", "EPOCH": "2025-12-11T14:00:01.999872", "MEAN_MOTION": 15.5068788, "ECCENTRICITY": 0.00013585, "INCLINATION": 43, "RA_OF_ASC_NODE": 127.829, "ARG_OF_PERICENTER": 266.8087, "MEAN_ANOMALY": 262.7925, "EPHEMERIS_TYPE": 0, "CLASSIFICATION_TYPE": "U", "NORAD_CAT_ID": 66585, "ELEMENT_SET_NO": 999, "REV_AT_EPOCH": 448, "BSTAR": -0.0041946101, "MEAN_MOTION_DOT": -0.00239959, "MEAN_MOTION_DDOT": 0}, "tle": {"line1": "1 66585U 25268AE  25345.58335648 -.00239959  00000+0 -41946-2 0  9998", "line2": "2 66585  43.0000 127.8290 0001358 266.8087 262.7925 15.50687880  4489"}}, "geometry": {"type": "Point", "coordinates": [159.29503244476112, 27.27542785171384]}}, {"type": "Feature", "properties": {"norad_id": 66586, "name": "TJS-21", "group": "last-30-days", "lat": 63.23347620608244, "lon": -109.58184138616448, "alt_km": 38241.18042326357, "timestamp": "2025-12-11T22:43:46.024012+00:00", "meta": {"OBJECT_NAME": "TJS-21", "OBJECT_ID": "2025-269A", "EPOCH": "2025-12-10T17:31:22.184832", "MEAN_MOTION": 2.00567425, "ECCENTRICITY": 0.6805766, "INCLINATION": 63.269, "RA_OF_ASC_NODE": 162.5612, "ARG_OF_PERICENTER": 269.7806, "MEAN_ANOMALY": 18.6565, "EPHEMERIS_TYPE": 0, "CLASSIFICATION_TYPE": "U", "NORAD_CAT_ID": 66586, "ELEMENT_SET_NO": 999, "REV_AT_EPOCH": 39, "BSTAR": -0.044965385, "MEAN_MOTION_DOT": 1.083e-05, "MEAN_MOTION_DDOT": 0}, "tle": {"line1": "1 66586U 25269A   25344.73011788  .00001083  00000+0 -44965-1 0  9999", "line2": "2 66586  63.2690 162.5612 6805766 269.7806  18.6565  2.00567425   392"}}, "geometry": {"type": "Point", "coordinates": [-109.58184138616448, 63.23347620608244]}}, {"type": "Feature", "properties": {"norad_id": 66587, "name": "CZ-3B R/B", "group": "last-30-days", "lat": 30.813881130209726, "lon": -161.66531954561034, "alt_km": 38554.169135485114, "timestamp": "2025-12-11T22:43:46.024026+00:00", "meta": {"OBJECT_NAME": "CZ-3B R/B", "OBJECT_ID": "2025-269B", "EPOCH": "2025-12-10T19:33:40.006368", "MEAN_MOTION": 2.03086829, "ECCENTRICITY": 0.7519519, "INCLINATION": 51.3442, "RA_OF_ASC_NODE": 170.0917, "ARG_OF_PERICENTER": 228.3676, "MEAN_ANOMALY": 37.5722, "EPHEMERIS_TYPE": 0, "CLASSIFICATION_TYPE": "U", "NORAD_CAT_ID": 66587, "ELEMENT_SET_NO": 999, "REV_AT_EPOCH": 41, "BSTAR": 0.0011692039, "MEAN_MOTION_DOT": 0.00057137, "MEAN_MOTION_DDOT": 1.092514e-06}, "tle": {"line1": "1 66587U 25269B   25344.81504637  .00057137  10925-5  11692-2 0  9994", "line2": "2 66587  51.3442 170.0917 7519519 228.3676  37.5722  2.03086829   418"}}, "geometry": {"type": "Point", "coordinates": [-161.66531954561034, 30.813881130209726]}}, {"type": "Feature", "properties": {"norad_id": 66588, "name": "STARLINK-36076", "group": "last-30-days", "lat": -42.90834889292763, "lon": 111.41133399878969, "alt_km": 426.9271039214145, "timestamp": "2025-12-11T22:43:46.024046+00:00", "meta": {"OBJECT_NAME": "STARLINK-36076", "OBJECT_ID": "2025-270A", "EPOCH": "2025-12-11T14:00:01.999872", "MEAN_MOTION": 15.48905022, "ECCENTRICITY": 0.00013554, "INCLINATION": 42.9994, "RA_OF_ASC_NODE": 199.5035, "ARG_OF_PERICENTER": 253.8594, "MEAN_ANOMALY": 149.6516, "EPHEMERIS_TYPE": 0, "CLASSIFICATION_TYPE": "U", "NORAD_CAT_ID": 66588, "ELEMENT_SET_NO": 999, "REV_AT_EPOCH": 421, "BSTAR": -0.039705004, "MEAN_MOTION_DOT": -0.0196421, "MEAN_MOTION_DDOT": 0}, "tle": {"line1": "1 66588U 25270A   25345.58335648 -.01964210  00000+0 -39705-1 0  9999", "line2": "2 66588  42.9994 199.5035 0001355 253.8594 149.6516 15.48905022  4219"}}, "geometry": {"type": "Point", "coordinates": [111.41133399878969, -42.90834889292763]}}]}